NORAD_CAT_ID,OBJECT_NAME,OBJECT_TYPE,EPOCH,MEAN_MOTION,ECCENTRICITY,INCLINATION,RA_OF_ASC_NODE,ARG_OF_PERICENTER,MEAN_ANOMALY,BSTAR,MEAN_MOTION_DOT,MEAN_MOTION_DDOT,TLE_LINE0,TLE_LINE1,TLE_LINE2,SEMIMAJOR_AXIS,PERIOD,APOGEE,PERIGEE,DECAYED
51747.0,STARLINK-3446,PAYLOAD,2022-10-18 19:04:00,15.08840799,0.0001906,53.2185,116.2566,47.9527,312.1627,0.00017897,2.561e-05,0.0,0 STARLINK-3446,1 51747U 22016AK  22291.79445516  .00002561  00000-0  17897-3 0  9991,2 51747  53.2185 116.2566 0001906  47.9527 312.1627 15.08840799 36683,6917.878000000002,95.438,541.061,538.424,0.0
51747.0,STARLINK-3446,PAYLOAD,2022-10-19 12:33:15,15.08848686,0.0001918,53.2185,112.9856,44.1082,316.0063,-0.00016608,-2.931e-05,0.0,0 STARLINK-3446,1 51747U 22016AK  22292.52309797 -.00002931  00000-0 -16608-3 0  9995,2 51747  53.2185 112.9856 0001918  44.1082 316.0063 15.08848686 36798,6917.854,95.437,541.0459999999998,538.3919999999998,0.0
51747.0,STARLINK-3446,PAYLOAD,2022-10-19 14:08:38,15.08848412,0.0001914,53.2185,112.6882,44.2774,315.8371,-0.00017203,-3.026e-05,0.0,0 STARLINK-3446,1 51747U 22016AK  22292.58933797 -.00003026  00000-0 -17203-3 0  9992,2 51747  53.2185 112.6882 0001914  44.2774 315.8371 15.08848412 36807,6917.855,95.437,541.044,538.396,0.0
51747.0,STARLINK-3446,PAYLOAD,2022-10-20 12:24:02,15.08843112,0.0001924,53.2186,108.5258,47.4432,312.6723,0.0001060999999999,1.401e-05,0.0,0 STARLINK-3446,1 51747U 22016AK  22293.51669841  .00001401  00000-0  10610-3 0  9990,2 51747  53.2186 108.5258 0001924  47.4432 312.6723 15.08843112 36949,6917.871,95.437,541.067,538.405,0.0
51747.0,STARLINK-3446,PAYLOAD,2022-10-20 18:45:35,15.08838012,0.0001948,53.2182,107.3352,52.7841,307.3329,5.4242e-05,5.75e-06,0.0,0 STARLINK-3446,1 51747U 22016AK  22293.78166257  .00000575  00000-0  54242-4 0  9993,2 51747  53.2182 107.3352 0001948  52.7841 307.3329 15.08838012 36986,6917.886,95.438,541.099,538.404,0.0
51747.0,STARLINK-3446,PAYLOAD,2022-10-21 10:39:27,15.08831503,0.0001861,53.2191,104.3629,45.2055,314.9088,7.6612e-05,9.31e-06,0.0,0 STARLINK-3446,1 51747U 22016AK  22294.44406974  .00000931  00000-0  76612-4 0  9991,2 51747  53.2191 104.3629 0001861  45.2055 314.9088 15.08831503 38210,6917.906,95.438,541.059,538.484,0.0
51747.0,STARLINK-3446,PAYLOAD,2022-10-21 12:14:50,15.0883122,0.0001871,53.2191,104.0655,44.9884,315.126,7.5176e-05,9.08e-06,0.0,0 STARLINK-3446,1 51747U 22016AK  22294.51031047  .00000908  00000-0  75176-4 0  9992,2 51747  53.2191 104.0655 0001871  44.9884 315.1260 15.08831220 37099,6917.906999999997,95.438,541.067,538.4780000000002,0.0
51747.0,STARLINK-3446,PAYLOAD,2022-10-21 18:36:23,15.08834508,0.0001884,53.2191,102.8761,45.7434,314.3712,0.00010421,1.371e-05,0.0,0 STARLINK-3446,1 51747U 22016AK  22294.77526975  .00001371  00000-0  10421-3 0  9995,2 51747  53.2191 102.8761 0001884  45.7434 314.3712 15.08834508 37137,6917.897,95.438,541.066,538.4590000000002,0.0
51747.0,STARLINK-3446,PAYLOAD,2022-10-22 10:30:14,15.08843262,0.0001931,53.2182,99.9024,45.8335,314.2815,0.00012174,1.65e-05,0.0,0 STARLINK-3446,1 51747U 22016AK  22295.43766445  .00001650  00000-0  12174-3 0  9994,2 51747  53.2182  99.9024 0001931  45.8335 314.2815 15.08843262 37230,6917.87,95.437,541.071,538.4,0.0
51747.0,STARLINK-3446,PAYLOAD,2022-10-22 20:02:32,15.08853477,0.0001948,53.2179,98.1179,44.3906,315.7242,0.00019737,2.856e-05,0.0,0 STARLINK-3446,1 51747U 22016AK  22295.83509954  .00002856  00000-0  19737-3 0  9999,2 51747  53.2179  98.1179 0001948  44.3906 315.7242 15.08853477 37299,6917.839,95.437,541.052,538.357,0.0
51747.0,STARLINK-3446,PAYLOAD,2022-10-23 05:34:51,15.08852645,0.0001979,53.2174,96.3335,45.716,314.3994,0.00035114,5.307e-05,0.0,0 STARLINK-3446,1 51747U 22016AK  22296.23254029  .00005307  00000-0  35114-3 0  9995,2 51747  53.2174  96.3335 0001979  45.7160 314.3994 15.08852645 37351,6917.842,95.437,541.076,538.3380000000002,0.0
51747.0,STARLINK-3446,PAYLOAD,2022-10-23 19:53:19,15.08846621,0.0001911,53.2176,93.657,41.7154,318.3984,0.0001044,1.374e-05,0.0,0 STARLINK-3446,1 51747U 22016AK  22296.82870011  .00001374  00000-0  10440-3 0  9990,2 51747  53.2176  93.6570 0001911  41.7154 318.3984 15.08846621 37449,6917.86,95.437,541.047,538.403,0.0
51747.0,STARLINK-3446,PAYLOAD,2022-10-24 11:47:11,15.08838964,0.0001781999999999,53.2185,90.6837,44.4476,315.6659,-6.347899999999999e-05,-1.298e-05,0.0,0 STARLINK-3446,1 51747U 22016AK  22297.49110175 -.00001298  00000-0 -63479-4 0  9990,2 51747  53.2185  90.6837 0001782  44.4476 315.6659 15.08838964 38671,6917.884,95.438,540.981,538.516,0.0
51747.0,STARLINK-3446,PAYLOAD,2022-10-24 16:33:21,15.08833592,0.0002005999999999,53.2191,89.7929,44.6151,315.5002,-7.2985e-05,-1.449e-05,0.0,0 STARLINK-3446,1 51747U 22016AK  22297.68983151 -.00001449  00000-0 -72985-4 0  9993,2 51747  53.2191  89.7929 0002006  44.6151 315.5002 15.08833592 37572,6917.9,95.438,541.153,538.377,0.0
51747.0,STARLINK-3446,PAYLOAD,2022-10-25 11:37:59,15.0882803,0.0001896999999999,53.2197,86.2247,41.9838,318.1299,-2.0454e-05,-6.14e-06,0.0,0 STARLINK-3446,1 51747U 22016AK  22298.48471765 -.00000614  00000-0 -20454-4 0  9992,2 51747  53.2197  86.2247 0001897  41.9838 318.1299 15.08828030 37693,6917.917,95.438,541.094,538.47,0.0
51747.0,STARLINK-3446,PAYLOAD,2022-10-25 16:24:08,15.08830708,0.0001896999999999,53.2197,85.3325,42.2564,317.8574,9.1942e-06,-1.42e-06,0.0,0 STARLINK-3446,1 51747U 22016AK  22298.68343694 -.00000142  00000-0  91942-5 0  9999,2 51747  53.2197  85.3325 0001897  42.2564 317.8574 15.08830708 37721,6917.909000000002,95.438,541.086,538.461,0.0
51747.0,STARLINK-3446,PAYLOAD,2022-10-26 14:39:32,15.08835775,0.0001895,53.2198,81.1696,42.4318,317.6821,0.00012132,1.643e-05,0.0,0 STARLINK-3446,1 51747U 22016AK  22299.61079594  .00001643  00000-0  12132-3 0  9996,2 51747  53.2198  81.1696 0001895  42.4318 317.6821 15.08835775 37861,6917.893,95.438,541.069,538.447,0.0
51747.0,STARLINK-3446,PAYLOAD,2022-10-27 16:05:42,15.08839511,0.0001896,53.2197,76.4107,35.0689,325.0428,0.00019308,2.786e-05,0.0,0 STARLINK-3446,1 51747U 22016AK  22300.67063626  .00002786  00000-0  19308-3 0  9995,2 51747  53.2197  76.4107 0001896  35.0689 325.0428 15.08839511 39156,6917.882,95.438,541.059,538.435,0.0
51747.0,STARLINK-3446,PAYLOAD,2022-10-28 01:38:01,15.08851283,0.0002089,53.2186,74.6262,41.7375,318.3776,0.00020131,2.918e-05,0.0,0 STARLINK-3446,1 51747U 22016AK  22301.06806977  .00002918  00000-0  20131-3 0  9996,2 51747  53.2186  74.6262 0002089  41.7375 318.3776 15.08851283 39215,6917.846,95.437,541.156,538.266,0.0
51747.0,STARLINK-3446,PAYLOAD,2022-10-28 12:45:42,15.0885773,0.0001983,53.2183,72.5442,41.341,318.7732,-4.3174e-05,-9.76e-06,0.0,0 STARLINK-3446,1 51747U 22016AK  22301.53174387 -.00000976  00000-0 -43174-4 0  9998,2 51747  53.2183  72.5442 0001983  41.3410 318.7732 15.08857730 38158,6917.826,95.436,541.063,538.319,0.0
51747.0,STARLINK-3446,PAYLOAD,2022-10-28 15:56:28,15.08858054,0.0002128,53.2188,71.9491,49.5249,310.5928,0.00019183,2.768e-05,0.0,0 STARLINK-3446,1 51747U 22016AK  22301.66422289  .00002768  00000-0  19183-3 0  9990,2 51747  53.2188  71.9491 0002128  49.5249 310.5928 15.08858054 38171,6917.825,95.436,541.1619999999998,538.2180000000002,0.0
51747.0,STARLINK-3446,PAYLOAD,2022-10-29 01:28:46,15.08872162,0.000241,53.2186,70.1652,38.1695,321.9468,0.00031819,4.784e-05,0.0,0 STARLINK-3446,1 51747U 22016AK  22302.06164988  .00004784  00000-0  31819-3 0  9994,2 51747  53.2186  70.1652 0002410  38.1695 321.9468 15.08872162 39365,6917.781999999997,95.436,541.314,537.98,0.0
51747.0,STARLINK-3446,PAYLOAD,2022-10-29 04:39:33,15.08853894,0.0002237,53.216,69.5731,44.2439,315.8732,6.7454e-05,7.86e-06,0.0,0 STARLINK-3446,1 51747U 22016AK  22302.19413633  .00000786  00000-0  67454-4 0  9995,2 51747  53.2160  69.5731 0002237  44.2439 315.8732 15.08853894 38252,6917.8380000000025,95.437,541.25,538.155,0.0
51747.0,STARLINK-3446,PAYLOAD,2022-10-29 15:47:15,15.08849116,0.0002136,53.2171,67.4909,42.0926,318.023,-3.5555e-05,-8.54e-06,0.0,0 STARLINK-3446,1 51747U 22016AK  22302.65781389 -.00000854  00000-0 -35555-4 0  9997,2 51747  53.2171  67.4909 0002136  42.0926 318.0230 15.08849116 39456,6917.853,95.437,541.195,538.24,0.0
51747.0,STARLINK-3446,PAYLOAD,2022-10-30 17:13:25,15.08835356,0.000188,53.2183,62.7345,49.4478,310.6678,-0.00023012,-3.948e-05,0.0,0 STARLINK-3446,1 51747U 22016AK  22303.71766072 -.00003948  00000-0 -23012-3 0  9998,2 51747  53.2183  62.7345 0001880  49.4478 310.6678 15.08835356 38486,6917.895,95.438,541.06,538.4590000000002,0.0
51747.0,STARLINK-3446,PAYLOAD,2022-10-31 10:42:41,15.08829263,0.0002489,53.2195,59.4643,32.2903,327.8241,-3.5592e-06,-3.45e-06,0.0,0 STARLINK-3446,1 51747U 22016AK  22304.44631103 -.00000345  00000-0 -35592-5 0  9991,2 51747  53.2195  59.4643 0002489  32.2903 327.8241 15.08829263 39726,6917.913000000001,95.438,541.5,538.056,0.0
51747.0,STARLINK-3446,PAYLOAD,2022-11-01 02:36:32,15.08838174,0.0002017,53.219,56.4887,39.2935,320.8203,0.00016294,2.306e-05,0.0,0 STARLINK-3446,1 51747U 22016AK  22305.10870421  .00002306  00000-0  16294-3 0  9996,2 51747  53.2190  56.4887 0002017  39.2935 320.8203 15.08838174 39820,6917.886,95.438,541.146,538.356,0.0
51747.0,STARLINK-3446,PAYLOAD,2022-11-01 13:44:14,15.08841288,0.0002045999999999,53.2183,54.4077,37.7172,322.3964,0.00024938,3.683e-05,0.0,0 STARLINK-3446,1 51747U 22016AK  22305.57238742  .00003683  00000-0  24938-3 0  9994,2 51747  53.2183  54.4077 0002046  37.7172 322.3964 15.08841288 38762,6917.876,95.437,541.1569999999998,538.326,0.0
51747.0,STARLINK-3446,PAYLOAD,2022-11-02 13:35:01,15.08833076,0.0002405,53.2178,49.9485,38.4396,321.6767,-8.87e-05,-1.7e-05,0.0,0 STARLINK-3446,1 51747U 22016AK  22306.56599273 -.00001700  00000-0 -88700-4 0  9991,2 51747  53.2178  49.9485 0002405  38.4396 321.6767 15.08833076 40046,6917.901999999999,95.438,541.43,538.1030000000002,0.0
